SEEDS II (CO-66)        
1 32791U 08021J   26068.92109284  .00023758  00000+0  84213-3 0  9995
2 32791  97.7519  62.3611 0001448 359.2618   0.8619 15.29097235972108
STARLINK-32686          
1 62192U 24229A   26068.88783889  .00032036  00000+0  11670-2 0  9990
2 62192  43.0011 265.9713 0002344 257.3610 102.6980 15.27625097 70637
