[{"OBJECT_NAME":"SEEDS II (CO-66)","OBJECT_ID":"2008-021J","EPOCH":"2026-03-09T22:06:22.421376","MEAN_MOTION":15.29097236,"ECCENTRICITY":0.00014475,"INCLINATION":97.7519,"RA_OF_ASC_NODE":62.3611,"ARG_OF_PERICENTER":359.2618,"MEAN_ANOMALY":0.8619,"EPHEMERIS_TYPE":0,"CLASSIFICATION_TYPE":"U","NORAD_CAT_ID":32791,"ELEMENT_SET_NO":999,"REV_AT_EPOCH":97210,"BSTAR":0.00084213052,"MEAN_MOTION_DOT":0.00023758,"MEAN_MOTION_DDOT":0},{"OBJECT_NAME":"STARLINK-32686","OBJECT_ID":"2024-229A","EPOCH":"2026-03-09T21:18:29.280096","MEAN_MOTION":15.27625097,"ECCENTRICITY":0.00023437,"INCLINATION":43.0011,"RA_OF_ASC_NODE":265.9713,"ARG_OF_PERICENTER":257.361,"MEAN_ANOMALY":102.698,"EPHEMERIS_TYPE":0,"CLASSIFICATION_TYPE":"U","NORAD_CAT_ID":62192,"ELEMENT_SET_NO":999,"REV_AT_EPOCH":7063,"BSTAR":0.001166985,"MEAN_MOTION_DOT":0.00032036,"MEAN_MOTION_DDOT":0}]
